CCSDS_OMM_VERS = 2.0
CREATION_DATE  = 
ORIGINATOR     = 

OBJECT_NAME    = ATLAS 5 CENTAUR R/B
OBJECT_ID      = 2025-261B
CENTER_NAME    = EARTH
REF_FRAME      = TEME
TIME_SYSTEM    = UTC
MEAN_ELEMENT_THEORY = SGP/SGP4

EPOCH          = 2025-12-10T19:10:51.172032
MEAN_MOTION    = 2.28259777
ECCENTRICITY   = .23294935
INCLINATION    = 6.1482
RA_OF_ASC_NODE = 291.8106
ARG_OF_PERICENTER = 186.0942
MEAN_ANOMALY   = 350.1221

EPHEMERIS_TYPE = 0
CLASSIFICATION_TYPE = U
NORAD_CAT_ID   = 66455
ELEMENT_SET_NO = 999
REV_AT_EPOCH   = 60
BSTAR          = 0
MEAN_MOTION_DOT = -.79E-6
MEAN_MOTION_DDOT = 0

CCSDS_OMM_VERS = 2.0
CREATION_DATE  = 
ORIGINATOR     = 

OBJECT_NAME    = STARLINK-35643
OBJECT_ID      = 2025-262A
CENTER_NAME    = EARTH
REF_FRAME      = TEME
TIME_SYSTEM    = UTC
MEAN_ELEMENT_THEORY = SGP/SGP4

EPOCH          = 2025-12-11T04:00:01.998720
MEAN_MOTION    = 15.40586830
ECCENTRICITY   = .0001405
INCLINATION    = 42.9999
RA_OF_ASC_NODE = 80.6749
ARG_OF_PERICENTER = 249.9301
MEAN_ANOMALY   = 166.0034

EPHEMERIS_TYPE = 0
CLASSIFICATION_TYPE = U
NORAD_CAT_ID   = 66456
ELEMENT_SET_NO = 999
REV_AT_EPOCH   = 538
BSTAR          = .32163E-2
MEAN_MOTION_DOT = .135959E-2
MEAN_MOTION_DDOT = 0

CCSDS_OMM_VERS = 2.0
CREATION_DATE  = 
ORIGINATOR     = 

OBJECT_NAME    = STARLINK-35466
OBJECT_ID      = 2025-262B
CENTER_NAME    = EARTH
REF_FRAME      = TEME
TIME_SYSTEM    = UTC
MEAN_ELEMENT_THEORY = SGP/SGP4

EPOCH          = 2025-12-11T04:00:01.998720
MEAN_MOTION    = 15.40594269
ECCENTRICITY   = .0001136
INCLINATION    = 43.0001
RA_OF_ASC_NODE = 80.6141
ARG_OF_PERICENTER = 259.0931
MEAN_ANOMALY   = 181.7179

EPHEMERIS_TYPE = 0
CLASSIFICATION_TYPE = U
NORAD_CAT_ID   = 66457
ELEMENT_SET_NO = 999
REV_AT_EPOCH   = 538
BSTAR          = .3178E-2
MEAN_MOTION_DOT = .134337E-2
MEAN_MOTION_DDOT = 0

CCSDS_OMM_VERS = 2.0
CREATION_DATE  = 
ORIGINATOR     = 

OBJECT_NAME    = STARLINK-35684
OBJECT_ID      = 2025-262C
CENTER_NAME    = EARTH
REF_FRAME      = TEME
TIME_SYSTEM    = UTC
MEAN_ELEMENT_THEORY = SGP/SGP4

EPOCH          = 2025-12-11T04:00:01.998720
MEAN_MOTION    = 15.40701439
ECCENTRICITY   = .0001316
INCLINATION    = 43.0001
RA_OF_ASC_NODE = 80.6442
ARG_OF_PERICENTER = 283.6188
MEAN_ANOMALY   = 144.6393

EPHEMERIS_TYPE = 0
CLASSIFICATION_TYPE = U
NORAD_CAT_ID   = 66458
ELEMENT_SET_NO = 999
REV_AT_EPOCH   = 538
BSTAR          = .45568E-3
MEAN_MOTION_DOT = .18779E-3
MEAN_MOTION_DDOT = 0

CCSDS_OMM_VERS = 2.0
CREATION_DATE  = 
ORIGINATOR     = 

OBJECT_NAME    = STARLINK-35449
OBJECT_ID      = 2025-262D
CENTER_NAME    = EARTH
REF_FRAME      = TEME
TIME_SYSTEM    = UTC
MEAN_ELEMENT_THEORY = SGP/SGP4

EPOCH          = 2025-12-11T04:00:01.998720
MEAN_MOTION    = 15.40684927
ECCENTRICITY   = .0001591
INCLINATION    = 42.9999
RA_OF_ASC_NODE = 80.5834
ARG_OF_PERICENTER = 251.8241
MEAN_ANOMALY   = 201.3883

EPHEMERIS_TYPE = 0
CLASSIFICATION_TYPE = U
NORAD_CAT_ID   = 66459
ELEMENT_SET_NO = 999
REV_AT_EPOCH   = 538
BSTAR          = -.14122E-3
MEAN_MOTION_DOT = -.6195E-4
MEAN_MOTION_DDOT = 0

CCSDS_OMM_VERS = 2.0
CREATION_DATE  = 
ORIGINATOR     = 

OBJECT_NAME    = STARLINK-35424
OBJECT_ID      = 2025-262E
CENTER_NAME    = EARTH
REF_FRAME      = TEME
TIME_SYSTEM    = UTC
MEAN_ELEMENT_THEORY = SGP/SGP4

EPOCH          = 2025-12-11T04:00:01.998720
MEAN_MOTION    = 15.40628335
ECCENTRICITY   = .0001567
INCLINATION    = 43.0001
RA_OF_ASC_NODE = 80.5531
ARG_OF_PERICENTER = 258.8335
MEAN_ANOMALY   = 206.8057

EPHEMERIS_TYPE = 0
CLASSIFICATION_TYPE = U
NORAD_CAT_ID   = 66460
ELEMENT_SET_NO = 999
REV_AT_EPOCH   = 538
BSTAR          = .21465E-2
MEAN_MOTION_DOT = .90213E-3
MEAN_MOTION_DDOT = 0

CCSDS_OMM_VERS = 2.0
CREATION_DATE  = 
ORIGINATOR     = 

OBJECT_NAME    = STARLINK-35132
OBJECT_ID      = 2025-262F
CENTER_NAME    = EARTH
REF_FRAME      = TEME
TIME_SYSTEM    = UTC
MEAN_ELEMENT_THEORY = SGP/SGP4

EPOCH          = 2025-12-11T04:00:01.998720
MEAN_MOTION    = 15.40613740
ECCENTRICITY   = .0001663
INCLINATION    = 43.0001
RA_OF_ASC_NODE = 80.5224
ARG_OF_PERICENTER = 265.0532
MEAN_ANOMALY   = 213.0393

EPHEMERIS_TYPE = 0
CLASSIFICATION_TYPE = U
NORAD_CAT_ID   = 66461
ELEMENT_SET_NO = 999
REV_AT_EPOCH   = 538
BSTAR          = .29366E-2
MEAN_MOTION_DOT = .124024E-2
MEAN_MOTION_DDOT = 0

CCSDS_OMM_VERS = 2.0
CREATION_DATE  = 
ORIGINATOR     = 

OBJECT_NAME    = STARLINK-35499
OBJECT_ID      = 2025-262G
CENTER_NAME    = EARTH
REF_FRAME      = TEME
TIME_SYSTEM    = UTC
MEAN_ELEMENT_THEORY = SGP/SGP4

EPOCH          = 2025-12-11T04:00:01.998720
MEAN_MOTION    = 15.40616545
ECCENTRICITY   = .0001301
INCLINATION    = 43.0004
RA_OF_ASC_NODE = 80.4918
ARG_OF_PERICENTER = 258.1571
MEAN_ANOMALY   = 232.3742

EPHEMERIS_TYPE = 0
CLASSIFICATION_TYPE = U
NORAD_CAT_ID   = 66462
ELEMENT_SET_NO = 999
REV_AT_EPOCH   = 538
BSTAR          = .28427E-2
MEAN_MOTION_DOT = .119996E-2
MEAN_MOTION_DDOT = 0

CCSDS_OMM_VERS = 2.0
CREATION_DATE  = 
ORIGINATOR     = 

OBJECT_NAME    = STARLINK-35463
OBJECT_ID      = 2025-262H
CENTER_NAME    = EARTH
REF_FRAME      = TEME
TIME_SYSTEM    = UTC
MEAN_ELEMENT_THEORY = SGP/SGP4

EPOCH          = 2025-12-11T04:00:01.998720
MEAN_MOTION    = 15.40714909
ECCENTRICITY   = .0001732
INCLINATION    = 43.0007
RA_OF_ASC_NODE = 80.4305
ARG_OF_PERICENTER = 245.4003
MEAN_ANOMALY   = 270.0652

EPHEMERIS_TYPE = 0
CLASSIFICATION_TYPE = U
NORAD_CAT_ID   = 66463
ELEMENT_SET_NO = 999
REV_AT_EPOCH   = 538
BSTAR          = -.53732E-2
MEAN_MOTION_DOT = -.218567E-2
MEAN_MOTION_DDOT = 0

CCSDS_OMM_VERS = 2.0
CREATION_DATE  = 
ORIGINATOR     = 

OBJECT_NAME    = STARLINK-35435
OBJECT_ID      = 2025-262J
CENTER_NAME    = EARTH
REF_FRAME      = TEME
TIME_SYSTEM    = UTC
MEAN_ELEMENT_THEORY = SGP/SGP4

EPOCH          = 2025-12-11T04:00:01.998720
MEAN_MOTION    = 15.40706983
ECCENTRICITY   = .0001951
INCLINATION    = 43.0004
RA_OF_ASC_NODE = 80.4610
ARG_OF_PERICENTER = 273.7801
MEAN_ANOMALY   = 229.1672

EPHEMERIS_TYPE = 0
CLASSIFICATION_TYPE = U
NORAD_CAT_ID   = 66464
ELEMENT_SET_NO = 999
REV_AT_EPOCH   = 538
BSTAR          = -.86183E-3
MEAN_MOTION_DOT = -.36144E-3
MEAN_MOTION_DDOT = 0

CCSDS_OMM_VERS = 2.0
CREATION_DATE  = 
ORIGINATOR     = 

OBJECT_NAME    = STARLINK-35448
OBJECT_ID      = 2025-262K
CENTER_NAME    = EARTH
REF_FRAME      = TEME
TIME_SYSTEM    = UTC
MEAN_ELEMENT_THEORY = SGP/SGP4

EPOCH          = 2025-12-11T04:00:01.998720
MEAN_MOTION    = 15.40601464
ECCENTRICITY   = .0002104
INCLINATION    = 43.0004
RA_OF_ASC_NODE = 80.3704
ARG_OF_PERICENTER = 278.6185
MEAN_ANOMALY   = 261.6805

EPHEMERIS_TYPE = 0
CLASSIFICATION_TYPE = U
NORAD_CAT_ID   = 66465
ELEMENT_SET_NO = 999
REV_AT_EPOCH   = 538
BSTAR          = .23922E-2
MEAN_MOTION_DOT = .100624E-2
MEAN_MOTION_DDOT = 0

CCSDS_OMM_VERS = 2.0
CREATION_DATE  = 
ORIGINATOR     = 

OBJECT_NAME    = STARLINK-35388
OBJECT_ID      = 2025-262L
CENTER_NAME    = EARTH
REF_FRAME      = TEME
TIME_SYSTEM    = UTC
MEAN_ELEMENT_THEORY = SGP/SGP4

EPOCH          = 2025-12-11T04:00:01.998720
MEAN_MOTION    = 15.42489274
ECCENTRICITY   = .0000928
INCLINATION    = 43.0006
RA_OF_ASC_NODE = 80.3415
ARG_OF_PERICENTER = 267.1567
MEAN_ANOMALY   = 284.4140

EPHEMERIS_TYPE = 0
CLASSIFICATION_TYPE = U
NORAD_CAT_ID   = 66466
ELEMENT_SET_NO = 999
REV_AT_EPOCH   = 538
BSTAR          = -.56716E-1
MEAN_MOTION_DOT = -.2252371E-1
MEAN_MOTION_DDOT = 0

CCSDS_OMM_VERS = 2.0
CREATION_DATE  = 
ORIGINATOR     = 

OBJECT_NAME    = STARLINK-35682
OBJECT_ID      = 2025-262M
CENTER_NAME    = EARTH
REF_FRAME      = TEME
TIME_SYSTEM    = UTC
MEAN_ELEMENT_THEORY = SGP/SGP4

EPOCH          = 2025-12-11T04:00:01.998720
MEAN_MOTION    = 15.40624173
ECCENTRICITY   = .0001446
INCLINATION    = 43.0006
RA_OF_ASC_NODE = 80.4002
ARG_OF_PERICENTER = 272.9014
MEAN_ANOMALY   = 254.9487

EPHEMERIS_TYPE = 0
CLASSIFICATION_TYPE = U
NORAD_CAT_ID   = 66467
ELEMENT_SET_NO = 999
REV_AT_EPOCH   = 538
BSTAR          = .32625E-2
MEAN_MOTION_DOT = .138127E-2
MEAN_MOTION_DDOT = 0

CCSDS_OMM_VERS = 2.0
CREATION_DATE  = 
ORIGINATOR     = 

OBJECT_NAME    = STARLINK-35331
OBJECT_ID      = 2025-262N
CENTER_NAME    = EARTH
REF_FRAME      = TEME
TIME_SYSTEM    = UTC
MEAN_ELEMENT_THEORY = SGP/SGP4

EPOCH          = 2025-12-11T04:00:01.998720
MEAN_MOTION    = 15.43530495
ECCENTRICITY   = .0001472
INCLINATION    = 43.0005
RA_OF_ASC_NODE = 80.3187
ARG_OF_PERICENTER = 278.6078
MEAN_ANOMALY   = 282.9648

EPHEMERIS_TYPE = 0
CLASSIFICATION_TYPE = U
NORAD_CAT_ID   = 66468
ELEMENT_SET_NO = 999
REV_AT_EPOCH   = 538
BSTAR          = -.3777E-1
MEAN_MOTION_DOT = -.1561541E-1
MEAN_MOTION_DDOT = 0

CCSDS_OMM_VERS = 2.0
CREATION_DATE  = 
ORIGINATOR     = 

OBJECT_NAME    = STARLINK-35451
OBJECT_ID      = 2025-262P
CENTER_NAME    = EARTH
REF_FRAME      = TEME
TIME_SYSTEM    = UTC
MEAN_ELEMENT_THEORY = SGP/SGP4

EPOCH          = 2025-12-10T16:12:32.558112
MEAN_MOTION    = 15.50219904
ECCENTRICITY   = .00004921
INCLINATION    = 43.0005
RA_OF_ASC_NODE = 83.1302
ARG_OF_PERICENTER = 334.6757
MEAN_ANOMALY   = 25.4079

EPHEMERIS_TYPE = 0
CLASSIFICATION_TYPE = U
NORAD_CAT_ID   = 66469
ELEMENT_SET_NO = 999
REV_AT_EPOCH   = 524
BSTAR          = -.29160526E-2
MEAN_MOTION_DOT = -.165698E-2
MEAN_MOTION_DDOT = 0

